start=new Date('2022-10-04T00:00:00.000Z').valueOf();
sats=[{"MEAN_MOTION_DOT":"0.00001123","LAUNCH_DATE":"2021-05-09","ECCENTRICITY":"0.00014900","COUNTRY_CODE":"US","ARG_OF_PERICENTER":"68.7307","BSTAR":"0.00009428900000","CLASSIFICATION_TYPE":"U","CENTER_NAME":"EARTH","INCLINATION":"53.0553","MEAN_MOTION_DDOT":"0.0000000000000","MEAN_ANOMALY":"291.3841","TIME_SYSTEM":"UTC","PERIAPSIS":"546.160","SEMIMAJOR_AXIS":"6925.326","GP_ID":"214117414","OBJECT_NAME":"STARLINK-2690","RCS_SIZE":"LARGE","MEAN_MOTION":"15.06407214","FILE":"3590585","APOAPSIS":"548.223","RA_OF_ASC_NODE":"66.4123","REV_AT_EPOCH":"7749","ELEMENT_SET_NO":"999","REF_FRAME":"TEME","MEAN_ELEMENT_THEORY":"SGP4","OBJECT_TYPE":"PAYLOAD","EPHEMERIS_TYPE":"0","PERIOD":"95.592","SITE":"AFETR","TLE_LINE1":"1 48480U 21040BE  22276.72099016  .00001123  00000-0  94289-4 0  9997","TLE_LINE2":"2 48480  53.0553  66.4123 0001490  68.7307 291.3841 15.06407214 77499","NORAD_CAT_ID":"48480","EPOCH":"2022-10-03T17:18:13.549824","DECAY_DATE":null,"OBJECT_ID":"2021-040BE"},{"ARG_OF_PERICENTER":"76.0134","BSTAR":"0.00010115000000","CLASSIFICATION_TYPE":"U","ECCENTRICITY":"0.00013960","LAUNCH_DATE":"2021-05-09","MEAN_MOTION_DOT":"0.00001226","COUNTRY_CODE":"US","MEAN_MOTION_DDOT":"0.0000000000000","MEAN_ANOMALY":"284.1010","CENTER_NAME":"EARTH","INCLINATION":"53.0558","APOAPSIS":"548.156","RA_OF_ASC_NODE":"66.2182","FILE":"3590585","ELEMENT_SET_NO":"999","REV_AT_EPOCH":"7750","REF_FRAME":"TEME","TIME_SYSTEM":"UTC","SEMIMAJOR_AXIS":"6925.324","PERIAPSIS":"546.223","RCS_SIZE":"LARGE","GP_ID":"214118665","OBJECT_NAME":"STARLINK-2706","MEAN_MOTION":"15.06407889","TLE_LINE2":"2 48481  53.0558  66.2182 0001396  76.0134 284.1010 15.06407889 77501","EPOCH":"2022-10-03T19:53:33.462528","NORAD_CAT_ID":"48481","DECAY_DATE":null,"OBJECT_ID":"2021-040BF","MEAN_ELEMENT_THEORY":"SGP4","OBJECT_TYPE":"PAYLOAD","EPHEMERIS_TYPE":"0","SITE":"AFETR","PERIOD":"95.592","TLE_LINE1":"1 48481U 21040BF  22276.82885952  .00001226  00000-0  10115-3 0  9990"},{"REF_FRAME":"TEME","REV_AT_EPOCH":"7750","ELEMENT_SET_NO":"999","FILE":"3590585","RA_OF_ASC_NODE":"66.0869","APOAPSIS":"548.086","MEAN_MOTION":"15.06411201","OBJECT_NAME":"STARLINK-2525","GP_ID":"214118909","RCS_SIZE":"LARGE","PERIAPSIS":"546.272","SEMIMAJOR_AXIS":"6925.314","TIME_SYSTEM":"UTC","OBJECT_ID":"2021-040BG","DECAY_DATE":null,"NORAD_CAT_ID":"48482","EPOCH":"2022-10-03T19:05:44.954016","TLE_LINE2":"2 48482  53.0541  66.0869 0001310  81.4770 278.6367 15.06411201 77502","TLE_LINE1":"1 48482U 21040BG  22276.79565919  .00008649  00000-0  59864-3 0  9995","PERIOD":"95.591","SITE":"AFETR","EPHEMERIS_TYPE":"0","OBJECT_TYPE":"PAYLOAD","MEAN_ELEMENT_THEORY":"SGP4","CLASSIFICATION_TYPE":"U","BSTAR":"0.00059864000000","ARG_OF_PERICENTER":"81.4770","COUNTRY_CODE":"US","LAUNCH_DATE":"2021-05-09","ECCENTRICITY":"0.00013100","MEAN_MOTION_DOT":"0.00008649","MEAN_ANOMALY":"278.6367","MEAN_MOTION_DDOT":"0.0000000000000","INCLINATION":"53.0541","CENTER_NAME":"EARTH"},{"CENTER_NAME":"EARTH","INCLINATION":"53.0543","MEAN_MOTION_DDOT":"0.0000000000000","MEAN_ANOMALY":"292.4982","LAUNCH_DATE":"2021-05-09","ECCENTRICITY":"0.00015160","MEAN_MOTION_DOT":"0.00006308","COUNTRY_CODE":"US","ARG_OF_PERICENTER":"67.6167","BSTAR":"0.00044188000000","CLASSIFICATION_TYPE":"U","MEAN_ELEMENT_THEORY":"SGP4","OBJECT_TYPE":"PAYLOAD","EPHEMERIS_TYPE":"0","PERIOD":"95.591","SITE":"AFETR","TLE_LINE1":"1 48483U 21040BH  22276.79197465  .00006308  00000-0  44188-3 0  9996","TLE_LINE2":"2 48483  53.0543  66.1012 0001516  67.6167 292.4982 15.06410766 77502","NORAD_CAT_ID":"48483","EPOCH":"2022-10-03T19:00:26.609760","DECAY_DATE":null,"OBJECT_ID":"2021-040BH","TIME_SYSTEM":"UTC","PERIAPSIS":"546.131","SEMIMAJOR_AXIS":"6925.316","GP_ID":"214117664","OBJECT_NAME":"STARLINK-2531","RCS_SIZE":"LARGE","MEAN_MOTION":"15.06410766","FILE":"3590585","RA_OF_ASC_NODE":"66.1012","APOAPSIS":"548.230","REV_AT_EPOCH":"7750","ELEMENT_SET_NO":"999","REF_FRAME":"TEME"},{"NORAD_CAT_ID":"48484","EPOCH":"2022-10-03T19:16:25.341312","TLE_LINE2":"2 48484  53.0557  66.4113 0001410  90.2797 269.8353 15.06415269 77500","OBJECT_ID":"2021-040BJ","DECAY_DATE":null,"EPHEMERIS_TYPE":"0","OBJECT_TYPE":"PAYLOAD","MEAN_ELEMENT_THEORY":"SGP4","TLE_LINE1":"1 48484U 21040BJ  22276.80307108  .00001618  00000-0  12744-3 0  9998","SITE":"AFETR","PERIOD":"95.591","ELEMENT_SET_NO":"999","REV_AT_EPOCH":"7750","APOAPSIS":"548.143","RA_OF_ASC_NODE":"66.4113","FILE":"3590585","REF_FRAME":"TEME","SEMIMAJOR_AXIS":"6925.302","PERIAPSIS":"546.190","TIME_SYSTEM":"UTC","MEAN_MOTION":"15.06415269","RCS_SIZE":"LARGE","OBJECT_NAME":"STARLINK-2696","GP_ID":"214117914","MEAN_ANOMALY":"269.8353","MEAN_MOTION_DDOT":"0.0000000000000","CENTER_NAME":"EARTH","INCLINATION":"53.0557","BSTAR":"0.00012744000000","ARG_OF_PERICENTER":"90.2797","CLASSIFICATION_TYPE":"U","COUNTRY_CODE":"US","LAUNCH_DATE":"2021-05-09","ECCENTRICITY":"0.00014100","MEAN_MOTION_DOT":"0.00001618"},{"CLASSIFICATION_TYPE":"U","ARG_OF_PERICENTER":"87.7113","BSTAR":"0.00029007000000","LAUNCH_DATE":"2021-05-09","MEAN_MOTION_DOT":"0.00004043","ECCENTRICITY":"0.00013930","COUNTRY_CODE":"US","MEAN_MOTION_DDOT":"0.0000000000000","MEAN_ANOMALY":"272.4035","INCLINATION":"53.0551","CENTER_NAME":"EARTH","REF_FRAME":"TEME","FILE":"3590585","RA_OF_ASC_NODE":"66.0687","APOAPSIS":"548.144","REV_AT_EPOCH":"7750","ELEMENT_SET_NO":"999","OBJECT_NAME":"STARLINK-2500","GP_ID":"214118166","RCS_SIZE":"LARGE","MEAN_MOTION":"15.06411040","TIME_SYSTEM":"UTC","PERIAPSIS":"546.215","SEMIMAJOR_AXIS":"6925.315","DECAY_DATE":null,"OBJECT_ID":"2021-040BK","TLE_LINE2":"2 48485  53.0551  66.0687 0001393  87.7113 272.4035 15.06411040 77500","NORAD_CAT_ID":"48485","EPOCH":"2022-10-03T19:11:03.366528","PERIOD":"95.591","SITE":"AFETR","TLE_LINE1":"1 48485U 21040BK  22276.79934452  .00004043  00000-0  29007-3 0  9990","MEAN_ELEMENT_THEORY":"SGP4","OBJECT_TYPE":"PAYLOAD","EPHEMERIS_TYPE":"0"},{"COUNTRY_CODE":"US","ECCENTRICITY":"0.00015460","LAUNCH_DATE":"2021-05-09","MEAN_MOTION_DOT":"0.00003633","CLASSIFICATION_TYPE":"U","BSTAR":"0.00026259000000","ARG_OF_PERICENTER":"59.6353","INCLINATION":"53.0550","CENTER_NAME":"EARTH","MEAN_ANOMALY":"300.4789","MEAN_MOTION_DDOT":"0.0000000000000","MEAN_MOTION":"15.06412560","RCS_SIZE":"LARGE","GP_ID":"214118410","OBJECT_NAME":"STARLINK-2496","SEMIMAJOR_AXIS":"6925.310","PERIAPSIS":"546.104","TIME_SYSTEM":"UTC","REF_FRAME":"TEME","ELEMENT_SET_NO":"999","REV_AT_EPOCH":"7750","APOAPSIS":"548.246","RA_OF_ASC_NODE":"66.0410","FILE":"3590585","TLE_LINE1":"1 48486U 21040BL  22276.80208465  .00003633  00000-0  26259-3 0  9991","SITE":"AFETR","PERIOD":"95.591","EPHEMERIS_TYPE":"0","MEAN_ELEMENT_THEORY":"SGP4","OBJECT_TYPE":"PAYLOAD","OBJECT_ID":"2021-040BL","DECAY_DATE":null,"NORAD_CAT_ID":"48486","EPOCH":"2022-10-03T19:15:00.113760","TLE_LINE2":"2 48486  53.0550  66.0410 0001546  59.6353 300.4789 15.06412560 77504"},{"SITE":"AFETR","PERIOD":"95.591","TLE_LINE1":"1 48487U 21040BM  22276.80672467  .00020497  00000-0  13902-2 0  9996","OBJECT_TYPE":"PAYLOAD","MEAN_ELEMENT_THEORY":"SGP4","EPHEMERIS_TYPE":"0","DECAY_DATE":null,"OBJECT_ID":"2021-040BM","TLE_LINE2":"2 48487  53.0536  66.0208 0001569  66.5461 293.5693 15.06419775 77518","NORAD_CAT_ID":"48487","EPOCH":"2022-10-03T19:21:41.011488","RCS_SIZE":"LARGE","GP_ID":"214117165","OBJECT_NAME":"STARLINK-2494","MEAN_MOTION":"15.06419775","TIME_SYSTEM":"UTC","SEMIMAJOR_AXIS":"6925.288","PERIAPSIS":"546.066","REF_FRAME":"TEME","APOAPSIS":"548.240","RA_OF_ASC_NODE":"66.0208","FILE":"3590585","ELEMENT_SET_NO":"999","REV_AT_EPOCH":"7751","INCLINATION":"53.0536","CENTER_NAME":"EARTH","MEAN_MOTION_DDOT":"0.0000000000000","MEAN_ANOMALY":"293.5693","ECCENTRICITY":"0.00015690","LAUNCH_DATE":"2021-05-09","MEAN_MOTION_DOT":"0.00020497","COUNTRY_CODE":"US","CLASSIFICATION_TYPE":"U","ARG_OF_PERICENTER":"66.5461","BSTAR":"0.00139020000000"},{"MEAN_ELEMENT_THEORY":"SGP4","OBJECT_TYPE":"PAYLOAD","EPHEMERIS_TYPE":"0","PERIOD":"95.591","SITE":"AFETR","TLE_LINE1":"1 48553U 21041A   22276.71733172  .00022597  00000-0  15301-2 0  9990","TLE_LINE2":"2 48553  53.0548 356.4277 0001812  47.4020 312.7122 15.06423670 76358","EPOCH":"2022-10-03T17:12:57.460608","NORAD_CAT_ID":"48553","DECAY_DATE":null,"OBJECT_ID":"2021-041A","TIME_SYSTEM":"UTC","PERIAPSIS":"545.886","SEMIMAJOR_AXIS":"6925.276","GP_ID":"214117672","OBJECT_NAME":"STARLINK-2063","RCS_SIZE":"LARGE","MEAN_MOTION":"15.06423670","FILE":"3590585","APOAPSIS":"548.396","RA_OF_ASC_NODE":"356.4277","REV_AT_EPOCH":"7635","ELEMENT_SET_NO":"999","REF_FRAME":"TEME","CENTER_NAME":"EARTH","INCLINATION":"53.0548","MEAN_MOTION_DDOT":"0.0000000000000","MEAN_ANOMALY":"312.7122","MEAN_MOTION_DOT":"0.00022597","LAUNCH_DATE":"2021-05-15","ECCENTRICITY":"0.00018120","COUNTRY_CODE":"US","ARG_OF_PERICENTER":"47.4020","BSTAR":"0.00153010000000","CLASSIFICATION_TYPE":"U"},{"CENTER_NAME":"EARTH","INCLINATION":"53.0544","MEAN_ANOMALY":"285.7647","MEAN_MOTION_DDOT":"0.0000000000000","COUNTRY_CODE":"US","MEAN_MOTION_DOT":"-0.00000820","LAUNCH_DATE":"2021-05-15","ECCENTRICITY":"0.00015150","BSTAR":"-0.00003613000000","ARG_OF_PERICENTER":"74.3509","CLASSIFICATION_TYPE":"U","EPHEMERIS_TYPE":"0","MEAN_ELEMENT_THEORY":"SGP4","OBJECT_TYPE":"PAYLOAD","TLE_LINE1":"1 48554U 21041B   22276.72469671 -.00000820  00000-0 -36130-4 0  9994","SITE":"AFETR","PERIOD":"95.591","NORAD_CAT_ID":"48554","EPOCH":"2022-10-03T17:23:33.795744","TLE_LINE2":"2 48554  53.0544 356.4034 0001515  74.3509 285.7647 15.06422138 76356","OBJECT_ID":"2021-041B","DECAY_DATE":null,"SEMIMAJOR_AXIS":"6925.281","PERIAPSIS":"546.097","TIME_SYSTEM":"UTC","MEAN_MOTION":"15.06422138","RCS_SIZE":"LARGE","OBJECT_NAME":"STARLINK-2139","GP_ID":"214117922","ELEMENT_SET_NO":"999","REV_AT_EPOCH":"7635","APOAPSIS":"548.195","RA_OF_ASC_NODE":"356.4034","FILE":"3590585","REF_FRAME":"TEME"}];
